ELEKTRO-L 3             
1 44903U 19095A   26175.66311528 -.00000088  00000+0  00000+0 0  9992
2 44903   0.2768  81.9256 0001432   0.2954 145.2777  1.00272369 23789
SHIJIAN-20 (SJ-20)      
1 44910U 19097A   26171.26850186  .00000130  00000+0  00000+0 0  9999
2 44910   4.9274  75.0271 0014829  52.9458 281.9613  1.00266805 23727
TJS-5                   
1 44978U 20002A   26172.55395016 -.00000343  00000+0  00000+0 0  9997
2 44978   0.0070  11.8722 0007602  36.2066 168.5853  1.00270465 23758
GSAT-30                 
1 45026U 20005A   26175.11562620  .00000000  00000+0  00000+0 0  9996
2 45026   0.0161 351.1849 0003755  92.3387 313.3910  1.00271063 23577
EUTELSAT KONNECT        
1 45027U 20005B   26175.17182663  .00000056  00000+0  00000+0 0  9999
2 45027   0.0716  95.1186 0001653 128.4641 117.8018  1.00269025 24406
JCSAT-17                
1 45245U 20013A   26175.00530917 -.00000313  00000+0  00000+0 0  9998
2 45245   5.3918 356.9457 0002999  93.2691 319.8749  1.00271941 23300
GEO-KOMPSAT-2B          
1 45246U 20013B   26175.03308476 -.00000337  00000+0  00000+0 0  9991
2 45246   0.0427 229.2692 0000263  44.2565 138.8344  1.00270705 23340
BEIDOU-3 G2             
1 45344U 20017A   26175.32873311 -.00000135  00000+0  00000+0 0  9997
2 45344   2.8791  47.4748 0002391  35.4850  27.9542  1.00271948 23335
AEHF-6 (USA 298)        
1 45465U 20022B   26175.00530917 -.00000291  00000+0  00000+0 0  9997
2 45465   2.5327 301.2532 0042757  17.2702  93.2979  1.00269559 23084
BEIDOU-3 G3             
1 45807U 20040A   26175.61949449 -.00000347  00000+0  00000+0 0  9990
2 45807   2.4657  67.5058 0002593 328.2392 210.5517  1.00275719 22141
APSTAR-6D               
1 45863U 20045A   26175.05413922 -.00000311  00000+0  00000+0 0  9998
2 45863   0.0464  92.8184 0002776 355.3911 337.5018  1.00267767 21920
KOREASAT 116            
1 45920U 20048A   26175.19558366 -.00000355  00000+0  00000+0 0  9990
2 45920   0.0171 356.5956 0001085 104.5542 357.8263  1.00273104 21718
EXPRESS 103             
1 45985U 20053A   26175.50582855 -.00000275  00000+0  00000+0 0  9993
2 45985   0.0130 297.4497 0000957  57.4818 196.3262  1.00285152 21728
EXPRESS 80              
1 45986U 20053B   26174.02448715  .00000000  00000+0  00000+0 0  9991
2 45986   0.0218 333.2860 0001867 221.5626 165.1459  1.00269884 21693
BSAT-4B                 
1 46112U 20056A   26175.03864247 -.00000343  00000+0  00000+0 0  9991
2 46112   0.0287 148.8479 0004252 327.9577 279.1306  1.00271625 21451
MEV-2                   
1 46113U 20056B   26175.02761910 -.00000004  00000+0  00000+0 0  9998
2 46113   0.0222 290.2426 0000317 232.3282 118.5529  1.00269986 80562
GALAXY 30 (G-30)        
1 46114U 20056C   26175.23825740  .00000044  00000+0  00000+0 0  9997
2 46114   0.0116  48.6374 0002203  40.4727 144.0438  1.00270568 21364
GAOFEN-13 01            
1 46610U 20071A   26175.33637917 -.00000355  00000+0  00000+0 0  9999
2 46610   0.5403  84.8321 0041351 123.3071 303.5950  1.00267475 20995
TIANTONG-1 2            
1 46916U 20082A   26175.19522675 -.00000348  00000+0  00000+0 0  9990
2 46916   0.7811 328.5776 0001663 111.3665  27.6171  1.00273791 20727
LUCAS (JDRS-1)          
1 47202U 20089A   26175.08497291 -.00000229  00000+0  00000+0 0  9997
2 47202   0.0406 277.7230 0002385 158.5081 317.3959  1.00272329 20488
SXM-7                   
1 47240U 20096A   26175.15358231 -.00000198  00000+0  00000+0 0  9990
2 47240   0.0326 108.7220 0003974  11.4178 122.3068  1.00271538  7517
CMS-01                  
1 47256U 20099A   26174.18873753 -.00000160  00000+0  00000+0 0  9992
2 47256   0.0274  97.4585 0003311 182.7050 142.1182  1.00270751 20259
TURKSAT 5A              
1 47306U 21001A   26175.10522616  .00000161  00000+0  00000+0 0  9994
2 47306   0.0229  69.2459 0000229 354.4836 277.3390  1.00271998 20039
TIANTONG-1 3            
1 47321U 21003A   26175.18656003 -.00000147  00000+0  00000+0 0  9994
2 47321   1.7499 339.8049 0003398 116.1274 325.0677  1.00270079 20031
TJS-6                   
1 47613U 21010A   26175.20580829  .00000050  00000+0  00000+0 0  9993
2 47613   0.2311 263.5799 0003190 222.7188  38.6187  1.00272014 19879
SBIRS GEO-5 (USA 315)   
1 48618U 21042A   26174.84944277 -.00000263  00000+0  00000+0 0  9991
2 48618   5.0944 329.1860 0001716 127.2807 215.1471  1.00271675 18832
FENGYUN 4B              
1 48808U 21047A   26175.33377917 -.00000323  00000+0  00000+0 0  9990
2 48808   0.1712  78.4799 0005892 278.2055 140.6825  1.00273998 18642
SXM-8                   
1 48838U 21049A   26175.15358231 -.00000198  00000+0  00000+0 0  9993
2 48838   0.0158   4.9450 0005489  27.9927 209.5188  1.00272490 18659
TIANLIAN 1-05           
1 49011U 21063A   26175.31633972  .00000115  00000+0  00000+0 0  9997
2 49011   1.6126  80.6545 0000741   4.8516 317.6535  1.00272476 18140
STAR ONE D2             
1 49055U 21069A   26175.22767060  .00000000  00000+0  00000+0 0  9990
2 49055   0.0158 349.5895 0002070 129.4688 165.1931  1.00269113 18018
EUTELSAT QUANTUM        
1 49056U 21069B   26173.82536882  .00000129  00000+0  00000+0 0  9993
2 49056   0.0239  48.5701 0002353  41.3647 165.9076  1.00273964 17984
ZHONGXING-2E            
1 49062U 21071A   26175.11857289 -.00000284  00000+0  00000+0 0  9997
2 49062   0.0416 159.8207 0001928 330.7571 282.4607  1.00271916 18108
