OBJECT_NAME,OBJECT_ID,EPOCH,MEAN_MOTION,ECCENTRICITY,INCLINATION,RA_OF_ASC_NODE,ARG_OF_PERICENTER,MEAN_ANOMALY,EPHEMERIS_TYPE,CLASSIFICATION_TYPE,NORAD_CAT_ID,ELEMENT_SET_NO,REV_AT_EPOCH,BSTAR,MEAN_MOTION_DOT,MEAN_MOTION_DDOT
ELEKTRO-L 3,2019-095A,2026-06-24T15:54:53.160192,1.00272369,.0001432,0.2768,81.9256,0.2954,145.2777,0,U,44903,999,2378,0,-.88E-6,0
SHIJIAN-20 (SJ-20),2019-097A,2026-06-20T06:26:38.560704,1.00266805,.0014829,4.9274,75.0271,52.9458,281.9613,0,U,44910,999,2372,0,.13E-5,0
TJS-5,2020-002A,2026-06-21T13:17:41.293824,1.00270465,.0007602,0.0070,11.8722,36.2066,168.5853,0,U,44978,999,2375,0,-.343E-5,0
GSAT-30,2020-005A,2026-06-24T02:46:30.103680,1.00271063,.0003755,0.0161,351.1849,92.3387,313.3910,0,U,45026,999,2357,0,0,0
EUTELSAT KONNECT,2020-005B,2026-06-24T04:07:25.820832,1.00269025,.00016539,0.0716,95.1186,128.4641,117.8018,0,U,45027,999,2440,0,.56E-6,0
JCSAT-17,2020-013A,2026-06-24T00:07:38.712288,1.00271941,.00029997,5.3918,356.9457,93.2691,319.8749,0,U,45245,999,2330,0,-.313E-5,0
GEO-KOMPSAT-2B,2020-013B,2026-06-24T00:47:38.523264,1.00270705,.00002637,0.0427,229.2692,44.2565,138.8344,0,U,45246,999,2334,0,-.337E-5,0
BEIDOU-3 G2,2020-017A,2026-06-24T07:53:22.540704,1.00271948,.00023917,2.8791,47.4748,35.4850,27.9542,0,U,45344,999,2333,0,-.135E-5,0
AEHF-6 (USA 298),2020-022B,2026-06-24T00:07:38.712288,1.00269559,.00427576,2.5327,301.2532,17.2702,93.2979,0,U,45465,999,2308,0,-.291E-5,0
BEIDOU-3 G3,2020-040A,2026-06-24T14:52:04.323936,1.00275719,.0002593,2.4657,67.5058,328.2392,210.5517,0,U,45807,999,2214,0,-.347E-5,0
APSTAR-6D,2020-045A,2026-06-24T01:17:57.628608,1.00267767,.00027763,0.0464,92.8184,355.3911,337.5018,0,U,45863,999,2192,0,-.311E-5,0
KOREASAT 116,2020-048A,2026-06-24T04:41:38.428224,1.00273104,.00010852,0.0171,356.5956,104.5542,357.8263,0,U,45920,999,2171,0,-.355E-5,0
EXPRESS 103,2020-053A,2026-06-24T12:08:23.586720,1.00285152,.0000957,0.0130,297.4497,57.4818,196.3262,0,U,45985,999,2172,0,-.275E-5,0
EXPRESS 80,2020-053B,2026-06-23T00:35:15.689760,1.00269884,.00018672,0.0218,333.2860,221.5626,165.1459,0,U,45986,999,2169,0,0,0
BSAT-4B,2020-056A,2026-06-24T00:55:38.709408,1.00271625,.0004252,0.0287,148.8479,327.9577,279.1306,0,U,46112,999,2145,0,-.343E-5,0
MEV-2,2020-056B,2026-06-24T00:39:46.290240,1.00269986,.00003177,0.0222,290.2426,232.3282,118.5529,0,U,46113,999,8056,0,-.4E-7,0
GALAXY 30 (G-30),2020-056C,2026-06-24T05:43:05.439360,1.00270568,.00022033,0.0116,48.6374,40.4727,144.0438,0,U,46114,999,2136,0,.44E-6,0
GAOFEN-13 01,2020-071A,2026-06-24T08:04:23.160288,1.00267475,.00413513,0.5403,84.8321,123.3071,303.5950,0,U,46610,999,2099,0,-.355E-5,0
TIANTONG-1 2,2020-082A,2026-06-24T04:41:07.591200,1.00273791,.00016633,0.7811,328.5776,111.3665,27.6171,0,U,46916,999,2072,0,-.348E-5,0
LUCAS (JDRS-1),2020-089A,2026-06-24T02:02:21.659424,1.00272329,.00023852,0.0406,277.7230,158.5081,317.3959,0,U,47202,999,2048,0,-.229E-5,0
SXM-7,2020-096A,2026-06-24T03:41:09.511584,1.00271538,.00039744,0.0326,108.7220,11.4178,122.3068,0,U,47240,999,751,0,-.198E-5,0
CMS-01,2020-099A,2026-06-23T04:31:46.922592,1.00270751,.00033115,0.0274,97.4585,182.7050,142.1182,0,U,47256,999,2025,0,-.16E-5,0
TURKSAT 5A,2021-001A,2026-06-24T02:31:31.540224,1.00271998,.00002298,0.0229,69.2459,354.4836,277.3390,0,U,47306,999,2003,0,.161E-5,0
TIANTONG-1 3,2021-003A,2026-06-24T04:28:38.786592,1.00270079,.00033984,1.7499,339.8049,116.1274,325.0677,0,U,47321,999,2003,0,-.147E-5,0
TJS-6,2021-010A,2026-06-24T04:56:21.836256,1.00272014,.00031904,0.2311,263.5799,222.7188,38.6187,0,U,47613,999,1987,0,.5E-6,0
SBIRS GEO-5 (USA 315),2021-042A,2026-06-23T20:23:11.855328,1.00271675,.00017169,5.0944,329.1860,127.2807,215.1471,0,U,48618,999,1883,0,-.263E-5,0
FENGYUN 4B,2021-047A,2026-06-24T08:00:38.520288,1.00273998,.0005892,0.1712,78.4799,278.2055,140.6825,0,U,48808,999,1864,0,-.323E-5,0
SXM-8,2021-049A,2026-06-24T03:41:09.511584,1.00272490,.0005489,0.0158,4.9450,27.9927,209.5188,0,U,48838,999,1865,0,-.198E-5,0
TIANLIAN 1-05,2021-063A,2026-06-24T07:35:31.751808,1.00272476,.0000741,1.6126,80.6545,4.8516,317.6535,0,U,49011,999,1814,0,.115E-5,0
STAR ONE D2,2021-069A,2026-06-24T05:27:50.739840,1.00269113,.00020708,0.0158,349.5895,129.4688,165.1931,0,U,49055,999,1801,0,0,0
EUTELSAT QUANTUM,2021-069B,2026-06-22T19:48:31.866048,1.00273964,.00023539,0.0239,48.5701,41.3647,165.9076,0,U,49056,999,1798,0,.129E-5,0
ZHONGXING-2E,2021-071A,2026-06-24T02:50:44.697696,1.00271916,.00019283,0.0416,159.8207,330.7571,282.4607,0,U,49062,999,1810,0,-.284E-5,0
